[
  {
    "OBJECT_NAME": "STARLINK-31271",
    "OBJECT_ID": "24017B",
    "EPOCH": "2025-11-11T05:07:08.991264",
    "MEAN_MOTION": 15.30129662,
    "ECCENTRICITY": 0.0001471,
    "INCLINATION": 53.1625,
    "RA_OF_ASC_NODE": 34.8698,
    "ARG_OF_PERICENTER": 81.8903,
    "MEAN_ANOMALY": 278.2265,
    "EPHEMERIS_TYPE": 0,
    "CLASSIFICATION_TYPE": "U",
    "NORAD_CAT_ID": 58827,
    "ELEMENT_SET_NO": 999,
    "REV_AT_EPOCH": 10191,
    "BSTAR": 0.0,
    "MEAN_MOTION_DOT": -0.00021903,
    "MEAN_MOTION_DDOT": 0.0,
    "TLE_LINE1": "1 58827U 24017B   25315.21329851 -.00021903  00000+0 -73112-3 0  9994",
    "TLE_LINE2": "2 58827  53.1625  34.8698 0001471  81.8903 278.2265 15.30129662101913",
    "COMMENT": "Grouped by shell and plane from TLE"
  },
  {
    "OBJECT_NAME": "STARLINK-31222",
    "OBJECT_ID": "24017C",
    "EPOCH": "2025-11-10T12:10:38.747424",
    "MEAN_MOTION": 15.30190353,
    "ECCENTRICITY": 0.0001136,
    "INCLINATION": 53.1609,
    "RA_OF_ASC_NODE": 37.5742,
    "ARG_OF_PERICENTER": 70.7002,
    "MEAN_ANOMALY": 289.4121,
    "EPHEMERIS_TYPE": 0,
    "CLASSIFICATION_TYPE": "U",
    "NORAD_CAT_ID": 58828,
    "ELEMENT_SET_NO": 999,
    "REV_AT_EPOCH": 10181,
    "BSTAR": 4.6078e-05,
    "MEAN_MOTION_DOT": 1.005e-05,
    "MEAN_MOTION_DDOT": 0.0,
    "TLE_LINE1": "1 58828U 24017C   25314.50739291  .00001005  00000+0  46078-4 0  9990",
    "TLE_LINE2": "2 58828  53.1609  37.5742 0001136  70.7002 289.4121 15.30190353101810",
    "COMMENT": "Grouped by shell and plane from TLE"
  },
  {
    "OBJECT_NAME": "STARLINK-31258",
    "OBJECT_ID": "24017D",
    "EPOCH": "2025-11-11T04:38:17.145600",
    "MEAN_MOTION": 15.30194386,
    "ECCENTRICITY": 8.42e-05,
    "INCLINATION": 53.1612,
    "RA_OF_ASC_NODE": 34.7412,
    "ARG_OF_PERICENTER": 91.0804,
    "MEAN_ANOMALY": 269.0293,
    "EPHEMERIS_TYPE": 0,
    "CLASSIFICATION_TYPE": "U",
    "NORAD_CAT_ID": 58829,
    "ELEMENT_SET_NO": 999,
    "REV_AT_EPOCH": 10191,
    "BSTAR": 1.9529e-05,
    "MEAN_MOTION_DOT": 2.19e-06,
    "MEAN_MOTION_DDOT": 0.0,
    "TLE_LINE1": "1 58829U 24017D   25315.19325400  .00000219  00000+0  19529-4 0  9997",
    "TLE_LINE2": "2 58829  53.1612  34.7412 0000842  91.0804 269.0293 15.30194386101912",
    "COMMENT": "Grouped by shell and plane from TLE"
  },
  {
    "OBJECT_NAME": "STARLINK-31253",
    "OBJECT_ID": "24017E",
    "EPOCH": "2025-11-11T05:44:58.479072",
    "MEAN_MOTION": 15.30201607,
    "ECCENTRICITY": 0.0001104,
    "INCLINATION": 53.1616,
    "RA_OF_ASC_NODE": 34.3184,
    "ARG_OF_PERICENTER": 68.2781,
    "MEAN_ANOMALY": 291.8337,
    "EPHEMERIS_TYPE": 0,
    "CLASSIFICATION_TYPE": "U",
    "NORAD_CAT_ID": 58830,
    "ELEMENT_SET_NO": 999,
    "REV_AT_EPOCH": 10192,
    "BSTAR": 0.00011627999999999999,
    "MEAN_MOTION_DOT": 3.086e-05,
    "MEAN_MOTION_DDOT": 0.0,
    "TLE_LINE1": "1 58830U 24017E   25315.23956573  .00003086  00000+0  11628-3 0  9991",
    "TLE_LINE2": "2 58830  53.1616  34.3184 0001104  68.2781 291.8337 15.30201607101920",
    "COMMENT": "Grouped by shell and plane from TLE"
  },
  {
    "OBJECT_NAME": "STARLINK-31232",
    "OBJECT_ID": "24017F",
    "EPOCH": "2025-11-11T05:38:54.140640",
    "MEAN_MOTION": 15.30179299,
    "ECCENTRICITY": 0.0001679,
    "INCLINATION": 53.1626,
    "RA_OF_ASC_NODE": 34.3004,
    "ARG_OF_PERICENTER": 65.973,
    "MEAN_ANOMALY": 294.1446,
    "EPHEMERIS_TYPE": 0,
    "CLASSIFICATION_TYPE": "U",
    "NORAD_CAT_ID": 58831,
    "ELEMENT_SET_NO": 999,
    "REV_AT_EPOCH": 10192,
    "BSTAR": 0.00042059000000000004,
    "MEAN_MOTION_DOT": 0.0001211,
    "MEAN_MOTION_DDOT": 0.0,
    "TLE_LINE1": "1 58831U 24017F   25315.23534885  .00012110  00000+0  42059-3 0  9990",
    "TLE_LINE2": "2 58831  53.1626  34.3004 0001679  65.9730 294.1446 15.30179299101926",
    "COMMENT": "Grouped by shell and plane from TLE"
  },
  {
    "OBJECT_NAME": "STARLINK-31246",
    "OBJECT_ID": "24017K",
    "EPOCH": "2025-11-11T05:58:39.476064",
    "MEAN_MOTION": 15.30196639,
    "ECCENTRICITY": 9.66e-05,
    "INCLINATION": 53.1603,
    "RA_OF_ASC_NODE": 34.3773,
    "ARG_OF_PERICENTER": 103.6498,
    "MEAN_ANOMALY": 256.461,
    "EPHEMERIS_TYPE": 0,
    "CLASSIFICATION_TYPE": "U",
    "NORAD_CAT_ID": 58835,
    "ELEMENT_SET_NO": 999,
    "REV_AT_EPOCH": 10192,
    "BSTAR": 0.00010242,
    "MEAN_MOTION_DOT": 2.675e-05,
    "MEAN_MOTION_DDOT": 0.0,
    "TLE_LINE1": "1 58835U 24017K   25315.24906801  .00002675  00000+0  10242-3 0  9990",
    "TLE_LINE2": "2 58835  53.1603  34.3773 0000966 103.6498 256.4610 15.30196639101928",
    "COMMENT": "Grouped by shell and plane from TLE"
  },
  {
    "OBJECT_NAME": "STARLINK-31251",
    "OBJECT_ID": "24017L",
    "EPOCH": "2025-11-11T06:09:17.626464",
    "MEAN_MOTION": 15.30188996,
    "ECCENTRICITY": 6.38e-05,
    "INCLINATION": 53.1601,
    "RA_OF_ASC_NODE": 34.4243,
    "ARG_OF_PERICENTER": 84.278,
    "MEAN_ANOMALY": 275.8294,
    "EPHEMERIS_TYPE": 0,
    "CLASSIFICATION_TYPE": "U",
    "NORAD_CAT_ID": 58836,
    "ELEMENT_SET_NO": 999,
    "REV_AT_EPOCH": 10203,
    "BSTAR": 0.00014256,
    "MEAN_MOTION_DOT": 3.864e-05,
    "MEAN_MOTION_DDOT": 0.0,
    "TLE_LINE1": "1 58836U 24017L   25315.25645401  .00003864  00000+0  14256-3 0  9998",
    "TLE_LINE2": "2 58836  53.1601  34.4243 0000638  84.2780 275.8294 15.30188996102037",
    "COMMENT": "Grouped by shell and plane from TLE"
  },
  {
    "OBJECT_NAME": "STARLINK-31249",
    "OBJECT_ID": "24017N",
    "EPOCH": "2025-11-11T06:18:24.547968",
    "MEAN_MOTION": 15.3019071,
    "ECCENTRICITY": 0.0001113,
    "INCLINATION": 53.1633,
    "RA_OF_ASC_NODE": 34.4658,
    "ARG_OF_PERICENTER": 99.0474,
    "MEAN_ANOMALY": 261.0652,
    "EPHEMERIS_TYPE": 0,
    "CLASSIFICATION_TYPE": "U",
    "NORAD_CAT_ID": 58838,
    "ELEMENT_SET_NO": 999,
    "REV_AT_EPOCH": 10192,
    "BSTAR": 0.0001447,
    "MEAN_MOTION_DOT": 3.928e-05,
    "MEAN_MOTION_DDOT": 0.0,
    "TLE_LINE1": "1 58838U 24017N   25315.26278412  .00003928  00000+0  14470-3 0  9994",
    "TLE_LINE2": "2 58838  53.1633  34.4658 0001113  99.0474 261.0652 15.30190710101926",
    "COMMENT": "Grouped by shell and plane from TLE"
  },
  {
    "OBJECT_NAME": "STARLINK-31236",
    "OBJECT_ID": "24017R",
    "EPOCH": "2025-11-10T14:47:00.262464",
    "MEAN_MOTION": 15.30222925,
    "ECCENTRICITY": 8.44e-05,
    "INCLINATION": 53.1601,
    "RA_OF_ASC_NODE": 37.5368,
    "ARG_OF_PERICENTER": 62.8454,
    "MEAN_ANOMALY": 297.2633,
    "EPHEMERIS_TYPE": 0,
    "CLASSIFICATION_TYPE": "U",
    "NORAD_CAT_ID": 58841,
    "ELEMENT_SET_NO": 999,
    "REV_AT_EPOCH": 10182,
    "BSTAR": 0.00091162,
    "MEAN_MOTION_DOT": 0.00026757,
    "MEAN_MOTION_DDOT": 0.0,
    "TLE_LINE1": "1 58841U 24017R   25314.61597526  .00026757  00000+0  91162-3 0  9994",
    "TLE_LINE2": "2 58841  53.1601  37.5368 0000844  62.8454 297.2633 15.30222925101826",
    "COMMENT": "Grouped by shell and plane from TLE"
  },
  {
    "OBJECT_NAME": "STARLINK-31228",
    "OBJECT_ID": "24017S",
    "EPOCH": "2025-11-11T06:22:58.410912",
    "MEAN_MOTION": 15.30209106,
    "ECCENTRICITY": 0.0001057,
    "INCLINATION": 53.1623,
    "RA_OF_ASC_NODE": 34.4836,
    "ARG_OF_PERICENTER": 111.3079,
    "MEAN_ANOMALY": 248.8035,
    "EPHEMERIS_TYPE": 0,
    "CLASSIFICATION_TYPE": "U",
    "NORAD_CAT_ID": 58842,
    "ELEMENT_SET_NO": 999,
    "REV_AT_EPOCH": 10192,
    "BSTAR": 2.4772e-05,
    "MEAN_MOTION_DOT": 3.75e-06,
    "MEAN_MOTION_DDOT": 0.0,
    "TLE_LINE1": "1 58842U 24017S   25315.26595383  .00000375  00000+0  24772-4 0  9998",
    "TLE_LINE2": "2 58842  53.1623  34.4836 0001057 111.3079 248.8035 15.30209106101922",
    "COMMENT": "Grouped by shell and plane from TLE"
  },
  {
    "OBJECT_NAME": "STARLINK-31280",
    "OBJECT_ID": "24017T",
    "EPOCH": "2025-11-11T06:32:05.266752",
    "MEAN_MOTION": 15.30193455,
    "ECCENTRICITY": 8.13e-05,
    "INCLINATION": 53.1608,
    "RA_OF_ASC_NODE": 34.5241,
    "ARG_OF_PERICENTER": 71.5222,
    "MEAN_ANOMALY": 288.5867,
    "EPHEMERIS_TYPE": 0,
    "CLASSIFICATION_TYPE": "U",
    "NORAD_CAT_ID": 58843,
    "ELEMENT_SET_NO": 999,
    "REV_AT_EPOCH": 10192,
    "BSTAR": 0.00013893,
    "MEAN_MOTION_DOT": 3.757e-05,
    "MEAN_MOTION_DDOT": 0.0,
    "TLE_LINE1": "1 58843U 24017T   25315.27228318  .00003757  00000+0  13893-3 0  9999",
    "TLE_LINE2": "2 58843  53.1608  34.5241 0000813  71.5222 288.5867 15.30193455101926",
    "COMMENT": "Grouped by shell and plane from TLE"
  },
  {
    "OBJECT_NAME": "STARLINK-31273",
    "OBJECT_ID": "24017W",
    "EPOCH": "2025-11-11T06:36:39.969504",
    "MEAN_MOTION": 15.30177709,
    "ECCENTRICITY": 7.27e-05,
    "INCLINATION": 53.1602,
    "RA_OF_ASC_NODE": 34.5401,
    "ARG_OF_PERICENTER": 72.9421,
    "MEAN_ANOMALY": 287.166,
    "EPHEMERIS_TYPE": 0,
    "CLASSIFICATION_TYPE": "U",
    "NORAD_CAT_ID": 58846,
    "ELEMENT_SET_NO": 999,
    "REV_AT_EPOCH": 10192,
    "BSTAR": 0.00023633,
    "MEAN_MOTION_DOT": 6.642e-05,
    "MEAN_MOTION_DDOT": 0.0,
    "TLE_LINE1": "1 58846U 24017W   25315.27546261  .00006642  00000+0  23633-3 0  9991",
    "TLE_LINE2": "2 58846  53.1602  34.5401 0000727  72.9421 287.1660 15.30177709101921",
    "COMMENT": "Grouped by shell and plane from TLE"
  },
  {
    "OBJECT_NAME": "STARLINK-31439",
    "OBJECT_ID": "24045A",
    "EPOCH": "2025-11-11T07:14:24.551520",
    "MEAN_MOTION": 15.27590473,
    "ECCENTRICITY": 8.4e-05,
    "INCLINATION": 43.0027,
    "RA_OF_ASC_NODE": 37.8404,
    "ARG_OF_PERICENTER": 266.1281,
    "MEAN_ANOMALY": 93.9474,
    "EPHEMERIS_TYPE": 0,
    "CLASSIFICATION_TYPE": "U",
    "NORAD_CAT_ID": 59178,
    "ELEMENT_SET_NO": 999,
    "REV_AT_EPOCH": 3142,
    "BSTAR": 0.00027706,
    "MEAN_MOTION_DOT": 7.372e-05,
    "MEAN_MOTION_DDOT": 0.0,
    "TLE_LINE1": "1 59178U 24045A   25315.30167305  .00007372  00000+0  27706-3 0  9999",
    "TLE_LINE2": "2 59178  43.0027  37.8404 0000840 266.1281  93.9474 15.27590473 31421",
    "COMMENT": "Grouped by shell and plane from TLE"
  }
]